OBJECT_NAME,OBJECT_ID,EPOCH,MEAN_MOTION,ECCENTRICITY,INCLINATION,RA_OF_ASC_NODE,ARG_OF_PERICENTER,MEAN_ANOMALY,EPHEMERIS_TYPE,CLASSIFICATION_TYPE,NORAD_CAT_ID,ELEMENT_SET_NO,REV_AT_EPOCH,BSTAR,MEAN_MOTION_DOT,MEAN_MOTION_DDOT
STARLINK-36891,2026-040K,2026-07-09T07:56:43.760256,15.33460217,.00012605,97.2847,138.6911,65.3994,294.7380,0,U,68024,999,2010,.37628609E-3,.12098E-3,0
STARLINK-36378,2026-040L,2026-07-09T14:04:46.749216,15.33437295,.00017834,97.2822,138.9532,92.2556,267.8891,0,U,68025,999,2014,.49870476E-3,.16056E-3,0
STARLINK-36884,2026-040M,2026-07-10T07:22:20.111808,15.33464669,.00018239,97.2810,139.6578,110.9461,249.1978,0,U,68026,999,2025,.92941831E-3,.30069E-3,0
STARLINK-36940,2026-040N,2026-07-09T07:01:54.507072,15.33440649,.00012921,97.2815,138.7416,72.4258,287.7126,0,U,68027,999,2010,.85869278E-3,.27745E-3,0
STARLINK-36944,2026-040Q,2026-07-09T14:00:52.550784,15.33435158,.00042962,97.2813,138.9564,92.1235,268.0500,0,U,68029,999,2014,.46979659E-3,.15121E-3,0
STARLINK-36942,2026-040R,2026-07-10T07:10:35.397120,15.33449345,.00015736,97.2812,139.6677,97.4225,262.7197,0,U,68030,999,2025,.55517442E-3,.17893E-3,0
STARLINK-36913,2026-040S,2026-07-10T02:24:46.170432,15.33448994,.00019792,97.2833,139.4747,103.2030,256.9433,0,U,68031,999,2022,.50522756E-3,.16273E-3,0
STARLINK-36935,2026-040T,2026-07-08T20:08:03.707520,15.33456425,.00019583,97.2814,138.2884,88.8253,271.3214,0,U,68032,999,2003,.4572968E-3,.14723E-3,0
STARLINK-36947,2026-040U,2026-07-10T03:54:49.468320,15.33449565,.00019716,97.2829,139.5481,88.6297,271.5172,0,U,68033,999,2023,.43727923E-3,.14071E-3,0
STARLINK-36939,2026-040V,2026-07-10T06:47:05.888256,15.33475661,.00021522,97.2807,139.6877,110.3075,249.8399,0,U,68034,999,2025,.96176505E-3,.31134E-3,0
STARLINK-36943,2026-040W,2026-07-09T07:09:44.739936,15.33463662,.00010148,97.2837,138.7343,71.8180,288.3173,0,U,68035,999,2123,.49824893E-3,.16054E-3,0
STARLINK-36906,2026-040X,2026-07-10T06:51:00.648288,15.33454198,.00010155,97.2804,139.6794,52.5917,307.5419,0,U,68036,999,2025,.53627043E-3,.17282E-3,0
STARLINK-36388,2026-040Y,2026-07-09T07:13:39.701280,15.33460913,.00012004,97.2847,138.7265,126.0507,234.0847,0,U,68037,999,2010,.8300392E-3,.2683E-3,0
STARLINK-36895,2026-040Z,2026-07-10T06:54:55.413504,15.33451923,.0001178,97.2787,139.6813,33.1678,326.9638,0,U,68038,999,2025,.52240038E-3,.16831E-3,0
STARLINK-36373,2026-040AA,2026-07-10T06:58:50.772288,15.33465180,.00028251,97.2826,139.6765,110.4866,249.6681,0,U,68039,999,2025,.79605724E-3,.25731E-3,0
STARLINK-36711,2026-041A,2026-07-10T00:48:08.612928,15.34414360,.0001061,53.1564,198.4912,110.1261,249.9856,0,U,68040,999,2016,.16820477E-3,.5314E-4,0
STARLINK-36825,2026-041B,2026-07-10T00:23:53.693088,15.34399033,.00008882,53.1572,198.3625,88.1617,271.9487,0,U,68041,999,2016,.14815034E-3,.4632E-4,0
STARLINK-36925,2026-041C,2026-07-09T01:21:59.860512,15.34450641,.00007781,53.1566,205.1907,70.9506,289.1581,0,U,68042,999,1998,.57023639E-3,.1897E-3,0
STARLINK-36902,2026-041D,2026-07-09T10:23:34.167840,15.34415427,.00019567,53.1627,203.2600,58.5583,301.5611,0,U,68043,999,2004,.58064965E-3,.19302E-3,0
STARLINK-36966,2026-041E,2026-07-10T00:29:57.565824,15.34375759,.00055951,53.1582,198.4118,310.7505,49.3012,0,U,68044,999,2016,.10510398E-3,.3172E-4,0
STARLINK-36864,2026-041F,2026-07-10T01:00:15.676704,15.34428952,.00021783,53.1527,198.5398,113.8886,246.2345,0,U,68045,999,2016,.57017399E-3,.18955E-3,0
STARLINK-36321,2026-041G,2026-07-10T00:09:32.714496,15.34402022,.00041003,53.1577,200.4481,104.6904,255.4553,0,U,68046,999,2013,.4127325E-3,.13596E-3,0
STARLINK-36181,2026-041H,2026-07-10T07:37:20.026560,15.34421872,.00010237,53.1548,198.8225,91.2093,268.9027,0,U,68047,999,2018,.3438777E-3,.11268E-3,0
STARLINK-36318,2026-041J,2026-07-09T17:44:37.238496,15.34409461,.00011031,53.1609,200.1988,89.8090,270.3039,0,U,68048,999,2011,.59408488E-3,.19755E-3,0
STARLINK-36885,2026-041K,2026-07-09T10:31:52.007232,15.34423971,.00006957,53.1577,201.1802,139.2621,220.8434,0,U,68049,999,2007,.51269435E-3,.16999E-3,0
STARLINK-36945,2026-041L,2026-07-09T17:29:28.387392,15.34407306,.00014209,53.1573,200.1258,111.3238,248.7917,0,U,68050,999,2011,.18591939E-3,.5912E-4,0
STARLINK-35911,2026-041M,2026-07-10T00:36:49.892544,15.34409392,.0001047,53.1581,200.5547,87.7310,272.3812,0,U,68051,999,2013,.14129477E-3,.4402E-4,0
STARLINK-35808,2026-041N,2026-07-10T01:34:16.197600,15.34404844,.000124,53.1570,200.1051,62.6828,297.4301,0,U,68052,999,2014,.41532927E-3,.13684E-3,0
STARLINK-36919,2026-041P,2026-07-10T00:39:51.467328,15.34404375,.00010267,53.1573,200.5647,104.3751,255.7366,0,U,68053,999,2013,.26696079E-4,.526E-5,0
STARLINK-36924,2026-041Q,2026-07-09T17:26:25.098432,15.34403418,.00018334,53.1564,200.1407,259.2457,100.8339,0,U,68054,999,2011,.10869957E-3,.3298E-4,0
STARLINK-35998,2026-041R,2026-07-09T00:51:43.703136,15.34408185,.00012224,53.1581,205.0499,60.0349,300.0775,0,U,68055,999,1998,.21742813E-3,.6979E-4,0
STARLINK-36845,2026-041S,2026-07-10T01:12:22.538304,15.34408976,.00023601,53.1517,198.5802,85.1376,274.9896,0,U,68056,999,2016,.76436661E-3,.25545E-3,0
STARLINK-36954,2026-041T,2026-07-10T00:54:11.870496,15.34408362,.00010159,53.1574,198.5035,95.3345,264.7774,0,U,68057,999,2016,.47310718E-3,.15646E-3,0
STARLINK-36899,2026-041U,2026-07-10T07:31:15.715776,15.34374360,.0001162,53.1557,198.8151,90.5681,269.5455,0,U,68058,999,2018,.21065806E-3,.6742E-4,0
STARLINK-36917,2026-041V,2026-07-10T07:39:40.398048,15.34364217,.00011291,53.1546,197.4175,53.0706,307.0400,0,U,68059,999,2020,.50429579E-3,.16681E-3,0
STARLINK-36959,2026-041W,2026-07-10T06:57:15.764256,15.34427338,.00011604,53.1572,197.2397,9.7807,350.3218,0,U,68060,999,2020,.51352888E-3,.17029E-3,0
STARLINK-36915,2026-041X,2026-07-09T14:48:59.777856,15.34416743,.00019513,53.1528,200.1406,78.5579,281.5642,0,U,68061,999,2010,.46072023E-3,.1523E-3,0
STARLINK-36952,2026-041Y,2026-07-10T01:06:18.758016,15.34397069,.00022932,53.1562,198.5682,109.7687,250.3563,0,U,68062,999,2016,.62326411E-3,.20738E-3,0
STARLINK-37000,2026-041Z,2026-07-09T17:41:34.028160,15.34393059,.00006415,53.1567,200.1916,104.3489,255.7585,0,U,68063,999,2011,.3606161E-5,-.254E-5,0
STARLINK-36996,2026-041AA,2026-07-09T10:01:33.053088,15.34429363,.00012339,53.1589,201.0332,82.9842,277.1300,0,U,68064,999,2007,.49437915E-3,.16379E-3,0
STARLINK-36836,2026-041AB,2026-07-10T07:01:05.992608,15.34405095,.00002133,53.1626,199.3715,5.4038,354.6967,0,U,68065,999,2017,.54303575E-3,.18019E-3,0
STARLINK-36976,2026-041AC,2026-07-10T00:17:50.349120,15.34392049,.00010193,53.1569,198.3480,19.4027,340.7014,0,U,68066,999,2016,.11342328E-3,.3457E-4,0
STARLINK-36929,2026-041AD,2026-07-10T01:09:21.236544,15.34420245,.00019831,53.1579,198.5847,105.3503,254.7719,0,U,68067,999,2016,.78166017E-3,.26143E-3,0
STARLINK-36990,2026-041AE,2026-07-10T07:40:21.355968,15.34406618,.00029823,53.1561,198.8335,94.4883,265.6461,0,U,68068,999,2018,.52142818E-3,.17286E-3,0
STARLINK-36766,2026-042A,2026-07-09T12:47:10.611744,15.34402615,.00006417,53.1605,331.0959,78.9254,281.1821,0,U,68069,999,2098,.46525632E-3,.15377E-3,0
STARLINK-36823,2026-042B,2026-07-09T08:59:22.681248,15.34418594,.00008659,53.1597,329.3545,64.4545,295.6547,0,U,68070,999,2099,.73830095E-3,.24665E-3,0
STARLINK-36970,2026-042C,2026-07-09T20:17:58.357248,15.34416768,.00010068,53.1597,329.4964,72.6676,287.4437,0,U,68071,999,2103,.73767203E-3,.24642E-3,0
STARLINK-36972,2026-042D,2026-07-09T21:03:17.083584,15.34420306,.00011209,53.1580,328.9701,77.5968,282.5160,0,U,68072,999,2104,.87807243E-3,.29426E-3,0
STARLINK-37074,2026-042E,2026-07-09T21:18:26.215488,15.34423633,.00008538,53.1589,329.0353,126.0086,234.0995,0,U,68073,999,2104,.56656792E-3,.18829E-3,0
STARLINK-37045,2026-042F,2026-07-09T15:42:38.855232,15.34407904,.00012806,53.1591,330.4473,98.2666,261.8482,0,U,68074,999,2100,.45262515E-3,.14951E-3,0
STARLINK-37026,2026-042G,2026-07-09T23:40:43.298400,15.34376901,.00013682,53.1603,328.9572,58.8379,301.2758,0,U,68075,999,2105,.49467079E-3,.16361E-3,0
STARLINK-37023,2026-042H,2026-07-09T21:45:42.297120,15.34456666,.00011222,53.1599,329.1668,84.6233,275.4897,0,U,68076,999,2104,.7434447E-3,.24871E-3,0
STARLINK-37036,2026-042J,2026-07-09T17:36:50.432256,15.34403973,.00007033,53.1602,328.0698,48.7808,311.3255,0,U,68077,999,2104,.2634099E-3,.8535E-4,0
STARLINK-36973,2026-042K,2026-07-09T21:15:24.499872,15.34396442,.00009859,53.1592,329.0240,82.6719,277.4395,0,U,68078,999,2104,.62462424E-3,.20784E-3,0
STARLINK-37063,2026-042L,2026-07-09T16:55:13.565568,15.34427823,.00012649,53.1598,330.0319,46.0260,314.0847,0,U,68079,999,2101,.87630033E-3,.29373E-3,0
STARLINK-37051,2026-042M,2026-07-09T23:39:53.819712,15.34406941,.00005573,53.1604,326.7821,74.1827,285.9237,0,U,68080,999,2108,.41823886E-3,.13784E-3,0
STARLINK-37066,2026-042N,2026-07-09T16:15:09.833760,15.34404049,.00005752,53.1577,328.4259,37.8794,322.2249,0,U,68081,999,2103,.42990621E-3,.14178E-3,0
STARLINK-37054,2026-042P,2026-07-08T17:13:09.241248,15.34402773,.00007922,53.1603,334.5213,83.6800,276.4292,0,U,68082,999,2086,.44040006E-3,.14534E-3,0
STARLINK-37065,2026-042Q,2026-07-09T15:45:40.799808,15.34410706,.00005418,53.1596,330.4531,53.2960,306.8093,0,U,68083,999,2100,.60308264E-3,.20061E-3,0
STARLINK-37037,2026-042R,2026-07-10T00:16:54.926976,15.34449860,.00007057,53.1593,328.3908,108.8318,251.2761,0,U,68084,999,2106,.80588593E-3,.26993E-3,0
STARLINK-37068,2026-042S,2026-07-09T12:49:23.736864,15.34393489,.00012472,53.1591,328.9497,69.3531,290.7605,0,U,68085,999,2101,.37764087E-3,.12401E-3,0
STARLINK-37067,2026-042T,2026-07-09T16:09:06.180480,15.34402508,.00005915,53.1587,328.3816,54.1036,306.0022,0,U,68086,999,2103,.58095264E-3,.19304E-3,0
STARLINK-37062,2026-042U,2026-07-09T16:12:48.861792,15.34400023,.00009101,53.1588,329.8345,86.7134,273.3972,0,U,68087,999,2101,.81546002E-3,.27276E-3,0
